{
  "norad_id": 57370,
  "name": "STARLINK-5353",
  "history": [
    {
      "epoch": "2026-03-28T20:00:01.999872Z",
      "apogee_km": 549.2402123701322,
      "perigee_km": 548.5651030850895,
      "latitude_deg": -1.5812774726560006,
      "longitude_deg": -172.85993423290245,
      "height_km": 549.0511048882544,
      "semi_major_axis_km": 6927.039657727611,
      "eccentricity": 4.873e-05,
      "inclination_deg": 43.0011,
      "raan_deg": 131.7095,
      "arg_perigee_deg": 298.9754,
      "mean_anomaly_deg": 243.2505,
      "mean_motion_rev_day": 15.05848397
    },
    {
      "epoch": "2026-03-29T04:00:01.999584Z",
      "apogee_km": 547.9603795835901,
      "perigee_km": 547.4631036439414,
      "latitude_deg": -7.584631390108034,
      "longitude_deg": 71.4696243547051,
      "height_km": 548.7009635884594,
      "semi_major_axis_km": 6925.848741613765,
      "eccentricity": 3.59e-05,
      "inclination_deg": 43.0007,
      "raan_deg": 129.8907,
      "arg_perigee_deg": 261.1558,
      "mean_anomaly_deg": 289.8588,
      "mean_motion_rev_day": 15.06236815
    },
    {
      "epoch": "2026-03-30T04:00:01.999584Z",
      "apogee_km": 544.6247391763791,
      "perigee_km": 543.479809070438,
      "latitude_deg": -26.320030437324295,
      "longitude_deg": 88.69168226946226,
      "height_km": 550.4619526594145,
      "semi_major_axis_km": 6922.189274123408,
      "eccentricity": 8.27e-05,
      "inclination_deg": 43.0004,
      "raan_deg": 124.4222,
      "arg_perigee_deg": 286.9478,
      "mean_anomaly_deg": 293.3194,
      "mean_motion_rev_day": 15.07431398
    },
    {
      "epoch": "2026-03-30T06:00:02.000160Z",
      "apogee_km": 545.1069310921794,
      "perigee_km": 542.3521666430615,
      "latitude_deg": -30.135914245228754,
      "longitude_deg": 168.06458680603856,
      "height_km": 550.8998232078958,
      "semi_major_axis_km": 6921.866548867621,
      "eccentricity": 0.00019899,
      "inclination_deg": 43.0,
      "raan_deg": 123.9692,
      "arg_perigee_deg": 264.2612,
      "mean_anomaly_deg": 48.6421,
      "mean_motion_rev_day": 15.07536823
    },
    {
      "epoch": "2026-03-30T14:00:03.000384Z",
      "apogee_km": 543.951237282944,
      "perigee_km": 541.2592069733801,
      "latitude_deg": -23.897629127075,
      "longitude_deg": 55.95333153773449,
      "height_km": 547.6705233311392,
      "semi_major_axis_km": 6920.742222128162,
      "eccentricity": 0.00019449,
      "inclination_deg": 43.0,
      "raan_deg": 122.1389,
      "arg_perigee_deg": 264.9864,
      "mean_anomaly_deg": 58.8271,
      "mean_motion_rev_day": 15.07904204
    },
    {
      "epoch": "2026-03-30T22:00:00.999936Z",
      "apogee_km": 542.789931894732,
      "perigee_km": 539.9764549840802,
      "latitude_deg": -16.867246326756185,
      "longitude_deg": -56.86252819934002,
      "height_km": 544.7736292550834,
      "semi_major_axis_km": 6919.520193439406,
      "eccentricity": 0.0002033,
      "inclination_deg": 43.0005,
      "raan_deg": 120.309,
      "arg_perigee_deg": 247.7803,
      "mean_anomaly_deg": 87.2388,
      "mean_motion_rev_day": 15.08303679
    },
    {
      "epoch": "2026-03-31T20:00:01.999008Z",
      "apogee_km": 539.1023833288191,
      "perigee_km": 536.5213512115542,
      "latitude_deg": -42.55955386367,
      "longitude_deg": -92.24692630010175,
      "height_km": 549.8162899394775,
      "semi_major_axis_km": 6915.948867270186,
      "eccentricity": 0.0001866,
      "inclination_deg": 43.0,
      "raan_deg": 115.2893,
      "arg_perigee_deg": 248.0209,
      "mean_anomaly_deg": 30.5798,
      "mean_motion_rev_day": 15.09472139
    },
    {
      "epoch": "2026-04-01T20:00:01.999008Z",
      "apogee_km": 535.7356330735411,
      "perigee_km": 532.746720749843,
      "latitude_deg": -26.4334529395122,
      "longitude_deg": -52.42268524241409,
      "height_km": 540.0947010090953,
      "semi_major_axis_km": 6912.378176911691,
      "eccentricity": 0.0002162,
      "inclination_deg": 43.0,
      "raan_deg": 109.7943,
      "arg_perigee_deg": 262.9656,
      "mean_anomaly_deg": 56.5598,
      "mean_motion_rev_day": 15.106419
    },
    {
      "epoch": "2026-04-02T20:00:01.999008Z",
      "apogee_km": 532.0337061360206,
      "perigee_km": 529.2826239013111,
      "latitude_deg": 3.2010907080727162,
      "longitude_deg": -23.481469153921594,
      "height_km": 530.4458732196708,
      "semi_major_axis_km": 6908.795165018666,
      "eccentricity": 0.0001991,
      "inclination_deg": 43.0006,
      "raan_deg": 104.2838,
      "arg_perigee_deg": 259.1672,
      "mean_anomaly_deg": 105.5638,
      "mean_motion_rev_day": 15.11817217
    },
    {
      "epoch": "2026-04-02T22:00:01.999584Z",
      "apogee_km": 532.6931171846973,
      "perigee_km": 530.6549993149556,
      "latitude_deg": 42.52488790178386,
      "longitude_deg": 44.57592650899019,
      "height_km": 535.7126291176893,
      "semi_major_axis_km": 6909.811058249826,
      "eccentricity": 0.00014748,
      "inclination_deg": 42.9999,
      "raan_deg": 103.8316,
      "arg_perigee_deg": 273.4119,
      "mean_anomaly_deg": 185.4249,
      "mean_motion_rev_day": 15.11483824
    },
    {
      "epoch": "2026-04-03T20:00:01.999008Z",
      "apogee_km": 529.6584754492014,
      "perigee_km": 527.0436790631538,
      "latitude_deg": 33.788136548935555,
      "longitude_deg": 12.137035024606897,
      "height_km": 530.471768762637,
      "semi_major_axis_km": 6906.488077256177,
      "eccentricity": 0.0001893,
      "inclination_deg": 42.9999,
      "raan_deg": 98.7765,
      "arg_perigee_deg": 281.8952,
      "mean_anomaly_deg": 132.4509,
      "mean_motion_rev_day": 15.12574806
    },
    {
      "epoch": "2026-04-04T20:00:01.999008Z",
      "apogee_km": 525.6176328277397,
      "perigee_km": 523.5178300484367,
      "latitude_deg": 40.513223958124264,
      "longitude_deg": 74.41726109491287,
      "height_km": 528.1495218243223,
      "semi_major_axis_km": 6902.704731438088,
      "eccentricity": 0.0001521,
      "inclination_deg": 43.0009,
      "raan_deg": 93.2525,
      "arg_perigee_deg": 269.8275,
      "mean_anomaly_deg": 198.4492,
      "mean_motion_rev_day": 15.13818531
    },
    {
      "epoch": "2026-04-05T14:00:03.000384Z",
      "apogee_km": 521.1614488587147,
      "perigee_km": 519.6959175649727,
      "latitude_deg": -36.93865165463406,
      "longitude_deg": -81.48824811156705,
      "height_km": 530.5600078395354,
      "semi_major_axis_km": 6898.565683211844,
      "eccentricity": 0.00010622,
      "inclination_deg": 42.9997,
      "raan_deg": 89.1021,
      "arg_perigee_deg": 266.2747,
      "mean_anomaly_deg": 335.091,
      "mean_motion_rev_day": 15.15181142
    },
    {
      "epoch": "2026-04-05T20:00:03.000384Z",
      "apogee_km": 520.2628592384581,
      "perigee_km": 518.9453906835906,
      "latitude_deg": 9.270134528783096,
      "longitude_deg": 123.54366513160618,
      "height_km": 518.9715411298165,
      "semi_major_axis_km": 6897.741124961024,
      "eccentricity": 9.55e-05,
      "inclination_deg": 43.0015,
      "raan_deg": 87.7135,
      "arg_perigee_deg": 285.2987,
      "mean_anomaly_deg": 241.0467,
      "mean_motion_rev_day": 15.15452838
    },
    {
      "epoch": "2026-04-06T06:00:02.000160Z",
      "apogee_km": 519.20099586581,
      "perigee_km": 516.9755839647542,
      "latitude_deg": -42.034015233495865,
      "longitude_deg": 86.8269370611145,
      "height_km": 530.114758483389,
      "semi_major_axis_km": 6896.225289915282,
      "eccentricity": 0.00016135,
      "inclination_deg": 43.0005,
      "raan_deg": 85.4066,
      "arg_perigee_deg": 243.0369,
      "mean_anomaly_deg": 38.797,
      "mean_motion_rev_day": 15.15952525
    },
    {
      "epoch": "2026-04-07T14:00:01.999872Z",
      "apogee_km": 514.5482216078135,
      "perigee_km": 511.65679533484854,
      "latitude_deg": 5.855654022814811,
      "longitude_deg": 38.421167243483076,
      "height_km": 512.3542929382276,
      "semi_major_axis_km": 6891.239508471331,
      "eccentricity": 0.00020979,
      "inclination_deg": 43.0008,
      "raan_deg": 78.0086,
      "arg_perigee_deg": 276.8239,
      "mean_anomaly_deg": 91.7883,
      "mean_motion_rev_day": 15.17598
    },
    {
      "epoch": "2026-04-07T20:00:00.999360Z",
      "apogee_km": 513.7125571182096,
      "perigee_km": 510.87232210320144,
      "latitude_deg": -38.08395307446422,
      "longitude_deg": -116.18070052724958,
      "height_km": 522.5231500899088,
      "semi_major_axis_km": 6890.429439610705,
      "eccentricity": 0.0002061,
      "inclination_deg": 43.0007,
      "raan_deg": 76.6189,
      "arg_perigee_deg": 252.3784,
      "mean_anomaly_deg": 43.3194,
      "mean_motion_rev_day": 15.17865631
    },
    {
      "epoch": "2026-04-08T14:00:04.999680Z",
      "apogee_km": 510.90610012101206,
      "perigee_km": 508.32828923611123,
      "latitude_deg": 42.19717453842253,
      "longitude_deg": 100.77952052581304,
      "height_km": 513.6276475777352,
      "semi_major_axis_km": 6887.754194678561,
      "eccentricity": 0.00018713,
      "inclination_deg": 43.0015,
      "raan_deg": 72.4347,
      "arg_perigee_deg": 293.4804,
      "mean_anomaly_deg": 145.5898,
      "mean_motion_rev_day": 15.18750039
    },
    {
      "epoch": "2026-04-09T20:00:01.999008Z",
      "apogee_km": 505.851189612883,
      "perigee_km": 504.1799601676985,
      "latitude_deg": 42.71876614245876,
      "longitude_deg": 7.368658067375152,
      "height_km": 508.6640302152466,
      "semi_major_axis_km": 6883.15257489029,
      "eccentricity": 0.0001214,
      "inclination_deg": 43.0005,
      "raan_deg": 65.4776,
      "arg_perigee_deg": 307.9039,
      "mean_anomaly_deg": 134.7275,
      "mean_motion_rev_day": 15.20273297
    },
    {
      "epoch": "2026-04-10T06:00:00.999648Z",
      "apogee_km": 503.9873291284266,
      "perigee_km": 503.0862427628954,
      "latitude_deg": -17.122739685790062,
      "longitude_deg": -26.159977203634238,
      "height_km": 506.96468973783266,
      "semi_major_axis_km": 6881.673785945661,
      "eccentricity": 6.547e-05,
      "inclination_deg": 43.0002,
      "raan_deg": 63.1501,
      "arg_perigee_deg": 282.0074,
      "mean_anomaly_deg": 283.3511,
      "mean_motion_rev_day": 15.20763356
    }
  ]
}